IRIDIUM 171             
1 43929U 19002H   24355.87387665 -.00000073  00000+0 -33051-4 0  9995
2 43929  86.3995 220.8354 0001749  98.6242 261.5152 14.34216962311088
IRIDIUM 170             
1 43930U 19002J   24355.69539956  .00001529  00000+0  23858-3 0  9997
2 43930  86.6111 220.6970 0002344  84.5389 275.6095 14.72246667319293
IRIDIUM 167             
1 43931U 19002K   24355.86753315  .00000394  00000+0  13379-3 0  9990
2 43931  86.3984 220.6100 0001599  90.0939 270.0440 14.34215055311085
IRIDIUM 181             
1 56726U 23068S   24355.77650693  .00000759  00000+0  21853-3 0  9999
2 56726  86.6865 283.1015 0002173  95.8150 264.3299 14.43563129 84058
IRIDIUM 177             
1 56727U 23068T   24355.73806994  .00002130  00000+0  27688-3 0  9990
2 56727  86.1978 226.7686 0002031  78.9628 281.1822 14.80229738 85978
IRIDIUM 174             
1 56728U 23068U   24356.07064512  .00002403  00000+0  31276-3 0  9992
2 56728  86.1983 226.7295 0002225  92.8874 267.2602 14.80233046 86029
IRIDIUM 178             
1 56729U 23068V   24355.72721164  .00002241  00000+0  29162-3 0  9998
2 56729  86.5773 253.1812 0002528  95.8827 264.2682 14.80212461 85973
IRIDIUM 179             
1 56730U 23068W   24356.05979028  .00000313  00000+0  37672-4 0  9995
2 56730  86.6783 259.5268 0002465  84.3206 275.8297 14.80233196 86021
